[{"name":"IRIDIUM 156","l1":"1 43576U 18061H   26183.60604632  .00000204  00000+0  65666-4 0  9996","l2":"2 43576  86.3944  50.2808 0002038  88.0557 272.0873 14.34219288415584","cat":"communications"},{"name":"IRIDIUM 164","l1":"1 43577U 18061J   26183.72655634  .00000017  00000+0 -10221-5 0  9999","l2":"2 43577  86.3945  50.2707 0002147  89.6686 270.4756 14.34217620415642","cat":"communications"},{"name":"IRIDIUM 159","l1":"1 43578U 18061K   26183.34600108  .00000040  00000+0  71396-5 0  9999","l2":"2 43578  86.3946  50.3666 0002217  84.8141 275.3308 14.34217774415557","cat":"communications"},{"name":"IRIDIUM 180","l1":"1 43922U 19002A   26183.69433956 -.00000001  00000+0 -74140-5 0  9990","l2":"2 43922  86.3975 347.1142 0002120  89.6194 270.5244 14.34217487391215","cat":"communications"},{"name":"IRIDIUM 176","l1":"1 43923U 19002B   26183.72362690  .00000897  00000+0  13841-3 0  9991","l2":"2 43923  86.6100 347.0429 0002377  88.1548 271.9942 14.72235550401537","cat":"communications"},{"name":"IRIDIUM 168","l1":"1 43924U 19002C   26183.68799267  .00000143  00000+0  44008-4 0  9995","l2":"2 43924  86.3983 347.1943 0002223  90.0790 270.0660 14.34218199391192","cat":"communications"},{"name":"IRIDIUM 173","l1":"1 43925U 19002D   26183.74508039  .00000004  00000+0 -57341-5 0  9990","l2":"2 43925  86.3975 347.0590 0002033  89.5959 270.5470 14.34217484391189","cat":"communications"},{"name":"IRIDIUM 169","l1":"1 43926U 19002E   26183.48495211  .00000318  00000+0  97476-4 0  9998","l2":"2 43926  86.4218  18.7960 0001641  89.3531 270.7855 14.38610890392421","cat":"communications"},{"name":"IRIDIUM 172","l1":"1 43927U 19002F   26183.45966382  .00000075  00000+0  19837-4 0  9993","l2":"2 43927  86.3978 347.1860 0002220  89.3387 270.8063 14.34217648391156","cat":"communications"},{"name":"IRIDIUM 175","l1":"1 43928U 19002G   26183.73302281  .00000384  00000+0  10752-3 0  9996","l2":"2 43928  86.4519 284.0229 0004365 140.7149 219.4370 14.43621622401228","cat":"communications"},{"name":"IRIDIUM 171","l1":"1 43929U 19002H   26183.71970992  .00000030  00000+0  37269-5 0  9997","l2":"2 43929  86.3987 347.3850 0002141  94.1062 266.0379 14.34217740391188","cat":"communications"},{"name":"IRIDIUM 170","l1":"1 43930U 19002J   26183.72980170  .00000897  00000+0  13833-3 0  9999","l2":"2 43930  86.6099 347.0426 0002421  84.8396 275.3097 14.72236070401541","cat":"communications"},{"name":"IRIDIUM 167","l1":"1 43931U 19002K   26183.71336667  .00000052  00000+0  11388-4 0  9992","l2":"2 43931  86.3979 347.1024 0002076  98.2861 261.8570 14.34217974391187","cat":"communications"},{"name":"IRIDIUM 181","l1":"1 56726U 23068S   26183.15092681  .00000342  00000+0  95510-4 0  9999","l2":"2 56726  86.4484  50.5342 0002437  86.2138 273.9341 14.43314274164592","cat":"communications"},{"name":"IRIDIUM 177","l1":"1 56727U 23068T   26183.66898595  .00001263  00000+0  16358-3 0  9999","l2":"2 56727  86.1979 321.4396 0002053  91.4923 268.6533 14.80012076168653","cat":"communications"},{"name":"IRIDIUM 174","l1":"1 56728U 23068U   26183.71742964  .00000954  00000+0  14747-3 0  9990","l2":"2 56728  86.6107 347.1967 0002234  80.2313 279.9157 14.72244216168304","cat":"communications"},{"name":"IRIDIUM 178","l1":"1 56729U 23068V   26183.25227976  .00001144  00000+0  14776-3 0  9995","l2":"2 56729  86.6532  19.0630 0002488  85.4914 274.6592 14.80047592168597","cat":"communications"},{"name":"IRIDIUM 179","l1":"1 56730U 23068W   26183.11176170  .00001035  00000+0  13333-3 0  9998","l2":"2 56730  86.6765  28.1459 0002435  87.7658 272.3842 14.80064129168575","cat":"communications"}]